QIANFAN-33              
1 61566U 24185Q   25244.58411986  .00000571  00000+0  40435-3 0  9994
2 61566  88.9743  90.2127 0004961 293.5233  66.5422 13.96424385 54901
QIANFAN-34              
1 61567U 24185R   25244.54009054  .00000526  00000+0  33517-3 0  9993
2 61567  88.9721  89.9163 0004126 303.8517  56.2270 14.02176831 55036
QIANFAN-35              
1 61568U 24185S   25244.58927829  .00001339  00000+0  53759-3 0  9990
2 61568  88.9746  88.8846 0004452 260.3646  99.7045 14.27698800 55609
QIANFAN-36              
1 61569U 24185T   25244.58313206  .00000156  00000+0  20657-3 0  9996
2 61569  88.9731  91.7010 0005879 357.9550   2.1579 13.55549755 54086
QIANFAN-37              
1 62238U 24232B   25244.56091945  .00000101  00000+0  13860-3 0  9992
2 62238  88.9941  51.6447 0002365  79.2077 280.9341 13.50961357 85377
QIANFAN-38              
1 62239U 24232C   25244.58580231  .00000091  00000+0  12253-3 0  9999
2 62239  88.9948  51.5510 0016157 126.4753 233.7890 13.50965404 85434
QIANFAN-39              
1 62240U 24232D   25244.62613776  .00000315  00000+0  12778-3 0  9998
2 62240  88.9949  48.9845 0018003  57.9512 302.3427 14.25238923 86848
QIANFAN-40              
1 62241U 24232E   25244.54464021  .00000080  00000+0  10480-3 0  9994
2 62241  88.9976  51.1109 0015032 133.5140 226.7263 13.50961932 85795
